UNKNOWN                 
1 82139U          25324.65673599  .00002180  00000+0  11044-2 0  9991
2 82139  99.0243  32.2702 0084317 105.6030 255.4468 14.15285387476999
UNKNOWN                 
1 82162U          25326.24901198  .00004223  00000+0  62977-2 0  9994
2 82162 100.4761 249.5702 0059037 289.0684  70.4062 13.53350682501539
UNKNOWN                 
1 82180U          25317.17498021  .00042825  00000+0  55072-2 0  9990
2 82180  65.6558  11.9328 0326753 232.3485 124.7559 14.49940193597461
UNKNOWN                 
1 82189U          25323.08585352  .00000424  00000+0  15742-3 0  9990
2 82189  74.0339  91.6865 0017526 287.9795  71.9447 14.35185078629022
UNKNOWN                 
1 82199U          25323.78670612  .00000687  00000+0  58330-3 0  9993
2 82199  82.9669 251.1353 0038367  99.3443 290.7964 13.85742209606516
UNKNOWN                 
1 82205U          25317.31324237  .00011023  00000+0  30738-2 0  9999
2 82205  63.0104 328.9022 0494766 289.8781  64.9605 13.92981876603900
UNKNOWN                 
1 82223U          25320.61833463  .00003825  00000+0  20794-2 0  9994
2 82223  99.3196 205.5672 0070000  57.3901 303.4000 14.11665576445101
UNKNOWN                 
1 82250U          25319.97629925  .00005148  00000+0  26893-2 0  9993
2 82250  98.9064 225.5370 0071084 269.2980 151.6890 14.13550674612853
UNKNOWN                 
1 82272U          25326.19914706  .00000603  00000+0  20156-2 0  9990
2 82272  67.5231 237.9318 0752786 119.7167 248.0913 12.33520477269409
UNKNOWN                 
1 82295U          25309.55036324  .00001555  00000+0  56719-3 0  9999
2 82295  66.6200 245.9932 0129908 248.5318 110.1886 14.31184947574409
UNKNOWN                 
1 82303U          25326.12574720  .00039355  00000+0  34375-1 0  9999
2 82303  81.9188  20.9221 0034052  83.0111 308.0589 13.85199921511577
UNKNOWN                 
1 82311U          25327.10989742  .00000702  00000+0  10500-2 0  9990
2 82311  99.4364  21.8332 0108001 357.3173   2.7373 13.54504835547668
