CCSDS_OMM_VERS = 2.0
CREATION_DATE  = 
ORIGINATOR     = 

OBJECT_NAME    = UNKNOWN
OBJECT_ID      = 
CENTER_NAME    = EARTH
REF_FRAME      = TEME
TIME_SYSTEM    = UTC
MEAN_ELEMENT_THEORY = SGP/SGP4

EPOCH          = 2025-11-20T15:45:41.989536
MEAN_MOTION    = 14.15285387
ECCENTRICITY   = .0084317
INCLINATION    = 99.0243
RA_OF_ASC_NODE = 32.2702
ARG_OF_PERICENTER = 105.6030
MEAN_ANOMALY   = 255.4468

EPHEMERIS_TYPE = 0
CLASSIFICATION_TYPE = U
NORAD_CAT_ID   = 82139
ELEMENT_SET_NO = 999
REV_AT_EPOCH   = 47699
BSTAR          = .11044E-2
MEAN_MOTION_DOT = .218E-4
MEAN_MOTION_DDOT = 0

CCSDS_OMM_VERS = 2.0
CREATION_DATE  = 
ORIGINATOR     = 

OBJECT_NAME    = UNKNOWN
OBJECT_ID      = 
CENTER_NAME    = EARTH
REF_FRAME      = TEME
TIME_SYSTEM    = UTC
MEAN_ELEMENT_THEORY = SGP/SGP4

EPOCH          = 2025-11-22T05:58:34.635072
MEAN_MOTION    = 13.53350682
ECCENTRICITY   = .0059037
INCLINATION    = 100.4761
RA_OF_ASC_NODE = 249.5702
ARG_OF_PERICENTER = 289.0684
MEAN_ANOMALY   = 70.4062

EPHEMERIS_TYPE = 0
CLASSIFICATION_TYPE = U
NORAD_CAT_ID   = 82162
ELEMENT_SET_NO = 999
REV_AT_EPOCH   = 50153
BSTAR          = .62977E-2
MEAN_MOTION_DOT = .4223E-4
MEAN_MOTION_DDOT = 0

CCSDS_OMM_VERS = 2.0
CREATION_DATE  = 
ORIGINATOR     = 

OBJECT_NAME    = UNKNOWN
OBJECT_ID      = 
CENTER_NAME    = EARTH
REF_FRAME      = TEME
TIME_SYSTEM    = UTC
MEAN_ELEMENT_THEORY = SGP/SGP4

EPOCH          = 2025-11-13T04:11:58.290144
MEAN_MOTION    = 14.49940193
ECCENTRICITY   = .0326753
INCLINATION    = 65.6558
RA_OF_ASC_NODE = 11.9328
ARG_OF_PERICENTER = 232.3485
MEAN_ANOMALY   = 124.7559

EPHEMERIS_TYPE = 0
CLASSIFICATION_TYPE = U
NORAD_CAT_ID   = 82180
ELEMENT_SET_NO = 999
REV_AT_EPOCH   = 59746
BSTAR          = .55072E-2
MEAN_MOTION_DOT = .42825E-3
MEAN_MOTION_DDOT = 0

CCSDS_OMM_VERS = 2.0
CREATION_DATE  = 
ORIGINATOR     = 

OBJECT_NAME    = UNKNOWN
OBJECT_ID      = 
CENTER_NAME    = EARTH
REF_FRAME      = TEME
TIME_SYSTEM    = UTC
MEAN_ELEMENT_THEORY = SGP/SGP4

EPOCH          = 2025-11-19T02:03:37.744128
MEAN_MOTION    = 14.35185078
ECCENTRICITY   = .0017526
INCLINATION    = 74.0339
RA_OF_ASC_NODE = 91.6865
ARG_OF_PERICENTER = 287.9795
MEAN_ANOMALY   = 71.9447

EPHEMERIS_TYPE = 0
CLASSIFICATION_TYPE = U
NORAD_CAT_ID   = 82189
ELEMENT_SET_NO = 999
REV_AT_EPOCH   = 62902
BSTAR          = .15742E-3
MEAN_MOTION_DOT = .424E-5
MEAN_MOTION_DDOT = 0

CCSDS_OMM_VERS = 2.0
CREATION_DATE  = 
ORIGINATOR     = 

OBJECT_NAME    = UNKNOWN
OBJECT_ID      = 
CENTER_NAME    = EARTH
REF_FRAME      = TEME
TIME_SYSTEM    = UTC
MEAN_ELEMENT_THEORY = SGP/SGP4

EPOCH          = 2025-11-19T18:52:51.408768
MEAN_MOTION    = 13.85742209
ECCENTRICITY   = .0038367
INCLINATION    = 82.9669
RA_OF_ASC_NODE = 251.1353
ARG_OF_PERICENTER = 99.3443
MEAN_ANOMALY   = 290.7964

EPHEMERIS_TYPE = 0
CLASSIFICATION_TYPE = U
NORAD_CAT_ID   = 82199
ELEMENT_SET_NO = 999
REV_AT_EPOCH   = 60651
BSTAR          = .5833E-3
MEAN_MOTION_DOT = .687E-5
MEAN_MOTION_DDOT = 0

CCSDS_OMM_VERS = 2.0
CREATION_DATE  = 
ORIGINATOR     = 

OBJECT_NAME    = UNKNOWN
OBJECT_ID      = 
CENTER_NAME    = EARTH
REF_FRAME      = TEME
TIME_SYSTEM    = UTC
MEAN_ELEMENT_THEORY = SGP/SGP4

EPOCH          = 2025-11-13T07:31:04.140768
MEAN_MOTION    = 13.92981876
ECCENTRICITY   = .0494766
INCLINATION    = 63.0104
RA_OF_ASC_NODE = 328.9022
ARG_OF_PERICENTER = 289.8781
MEAN_ANOMALY   = 64.9605

EPHEMERIS_TYPE = 0
CLASSIFICATION_TYPE = U
NORAD_CAT_ID   = 82205
ELEMENT_SET_NO = 999
REV_AT_EPOCH   = 60390
BSTAR          = .30738E-2
MEAN_MOTION_DOT = .11023E-3
MEAN_MOTION_DDOT = 0

CCSDS_OMM_VERS = 2.0
CREATION_DATE  = 
ORIGINATOR     = 

OBJECT_NAME    = UNKNOWN
OBJECT_ID      = 
CENTER_NAME    = EARTH
REF_FRAME      = TEME
TIME_SYSTEM    = UTC
MEAN_ELEMENT_THEORY = SGP/SGP4

EPOCH          = 2025-11-16T14:50:24.112032
MEAN_MOTION    = 14.11665576
ECCENTRICITY   = .007
INCLINATION    = 99.3196
RA_OF_ASC_NODE = 205.5672
ARG_OF_PERICENTER = 57.3901
MEAN_ANOMALY   = 303.4000

EPHEMERIS_TYPE = 0
CLASSIFICATION_TYPE = U
NORAD_CAT_ID   = 82223
ELEMENT_SET_NO = 999
REV_AT_EPOCH   = 44510
BSTAR          = .20794E-2
MEAN_MOTION_DOT = .3825E-4
MEAN_MOTION_DDOT = 0

CCSDS_OMM_VERS = 2.0
CREATION_DATE  = 
ORIGINATOR     = 

OBJECT_NAME    = UNKNOWN
OBJECT_ID      = 
CENTER_NAME    = EARTH
REF_FRAME      = TEME
TIME_SYSTEM    = UTC
MEAN_ELEMENT_THEORY = SGP/SGP4

EPOCH          = 2025-11-15T23:25:52.255200
MEAN_MOTION    = 14.13550674
ECCENTRICITY   = .0071084
INCLINATION    = 98.9064
RA_OF_ASC_NODE = 225.5370
ARG_OF_PERICENTER = 269.2980
MEAN_ANOMALY   = 151.6890

EPHEMERIS_TYPE = 0
CLASSIFICATION_TYPE = U
NORAD_CAT_ID   = 82250
ELEMENT_SET_NO = 999
REV_AT_EPOCH   = 61285
BSTAR          = .26893E-2
MEAN_MOTION_DOT = .5148E-4
MEAN_MOTION_DDOT = 0

CCSDS_OMM_VERS = 2.0
CREATION_DATE  = 
ORIGINATOR     = 

OBJECT_NAME    = UNKNOWN
OBJECT_ID      = 
CENTER_NAME    = EARTH
REF_FRAME      = TEME
TIME_SYSTEM    = UTC
MEAN_ELEMENT_THEORY = SGP/SGP4

EPOCH          = 2025-11-22T04:46:46.305984
MEAN_MOTION    = 12.33520477
ECCENTRICITY   = .0752786
INCLINATION    = 67.5231
RA_OF_ASC_NODE = 237.9318
ARG_OF_PERICENTER = 119.7167
MEAN_ANOMALY   = 248.0913

EPHEMERIS_TYPE = 0
CLASSIFICATION_TYPE = U
NORAD_CAT_ID   = 82272
ELEMENT_SET_NO = 999
REV_AT_EPOCH   = 26940
BSTAR          = .20156E-2
MEAN_MOTION_DOT = .603E-5
MEAN_MOTION_DDOT = 0

CCSDS_OMM_VERS = 2.0
CREATION_DATE  = 
ORIGINATOR     = 

OBJECT_NAME    = UNKNOWN
OBJECT_ID      = 
CENTER_NAME    = EARTH
REF_FRAME      = TEME
TIME_SYSTEM    = UTC
MEAN_ELEMENT_THEORY = SGP/SGP4

EPOCH          = 2025-11-05T13:12:31.383936
MEAN_MOTION    = 14.31184947
ECCENTRICITY   = .0129908
INCLINATION    = 66.6200
RA_OF_ASC_NODE = 245.9932
ARG_OF_PERICENTER = 248.5318
MEAN_ANOMALY   = 110.1886

EPHEMERIS_TYPE = 0
CLASSIFICATION_TYPE = U
NORAD_CAT_ID   = 82295
ELEMENT_SET_NO = 999
REV_AT_EPOCH   = 57440
BSTAR          = .56719E-3
MEAN_MOTION_DOT = .1555E-4
MEAN_MOTION_DDOT = 0

CCSDS_OMM_VERS = 2.0
CREATION_DATE  = 
ORIGINATOR     = 

OBJECT_NAME    = UNKNOWN
OBJECT_ID      = 
CENTER_NAME    = EARTH
REF_FRAME      = TEME
TIME_SYSTEM    = UTC
MEAN_ELEMENT_THEORY = SGP/SGP4

EPOCH          = 2025-11-22T03:01:04.558080
MEAN_MOTION    = 13.85199921
ECCENTRICITY   = .0034052
INCLINATION    = 81.9188
RA_OF_ASC_NODE = 20.9221
ARG_OF_PERICENTER = 83.0111
MEAN_ANOMALY   = 308.0589

EPHEMERIS_TYPE = 0
CLASSIFICATION_TYPE = U
NORAD_CAT_ID   = 82303
ELEMENT_SET_NO = 999
REV_AT_EPOCH   = 51157
BSTAR          = .34375E-1
MEAN_MOTION_DOT = .39355E-3
MEAN_MOTION_DDOT = 0

CCSDS_OMM_VERS = 2.0
CREATION_DATE  = 
ORIGINATOR     = 

OBJECT_NAME    = UNKNOWN
OBJECT_ID      = 
CENTER_NAME    = EARTH
REF_FRAME      = TEME
TIME_SYSTEM    = UTC
MEAN_ELEMENT_THEORY = SGP/SGP4

EPOCH          = 2025-11-23T02:38:15.137088
MEAN_MOTION    = 13.54504835
ECCENTRICITY   = .0108001
INCLINATION    = 99.4364
RA_OF_ASC_NODE = 21.8332
ARG_OF_PERICENTER = 357.3173
MEAN_ANOMALY   = 2.7373

EPHEMERIS_TYPE = 0
CLASSIFICATION_TYPE = U
NORAD_CAT_ID   = 82311
ELEMENT_SET_NO = 999
REV_AT_EPOCH   = 54766
BSTAR          = .105E-2
MEAN_MOTION_DOT = .702E-5
MEAN_MOTION_DDOT = 0

